start=new Date('2022-04-12T00:00:00.000Z').valueOf();
sats=[{"RA_OF_ASC_NODE":"168.6445","OBJECT_TYPE":"PAYLOAD","EPHEMERIS_TYPE":"0","BSTAR":"-0.04525800000000","MEAN_MOTION_DDOT":"0.0000000000000","NORAD_CAT_ID":"50207","TIME_SYSTEM":"UTC","ELEMENT_SET_NO":"999","PERIAPSIS":"530.019","SEMIMAJOR_AXIS":"6909.342","COUNTRY_CODE":"US","MEAN_ANOMALY":"221.3086","INCLINATION":"53.2175","FILE":"3397723","DECAY_DATE":null,"CENTER_NAME":"EARTH","GP_ID":"201018891","SITE":"AFWTR","REF_FRAME":"TEME","TLE_LINE1":"1 50207U 21125BD  22101.91667824 -.00724167  00000-0 -45258-1 0  9998","MEAN_MOTION_DOT":"-0.00724167","CLASSIFICATION_TYPE":"U","OBJECT_NAME":"STARLINK-3262","RCS_SIZE":"LARGE","REV_AT_EPOCH":"362","LAUNCH_DATE":"2021-12-18","TLE_LINE2":"2 50207  53.2175 168.6445 0001720  46.1284 221.3086 15.11637690  3620","APOAPSIS":"532.396","ECCENTRICITY":"0.00017200","MEAN_MOTION":"15.11637690","OBJECT_ID":"2021-125BD","ARG_OF_PERICENTER":"46.1284","MEAN_ELEMENT_THEORY":"SGP4","PERIOD":"95.261","EPOCH":"2022-04-11T22:00:00.999936"},{"MEAN_MOTION":"15.12718433","PERIOD":"95.193","MEAN_ELEMENT_THEORY":"SGP4","OBJECT_ID":"2022-001A","ARG_OF_PERICENTER":"41.7785","TLE_LINE2":"2 50803  53.2173  98.6615 0001682  41.7785 302.1358 15.12718433  3621","ECCENTRICITY":"0.00016820","APOAPSIS":"529.078","EPOCH":"2022-04-11T22:00:00.999936","CLASSIFICATION_TYPE":"U","MEAN_MOTION_DOT":"-0.00719644","LAUNCH_DATE":"2022-01-06","RCS_SIZE":"LARGE","OBJECT_NAME":"STARLINK-3321","REV_AT_EPOCH":"362","MEAN_ANOMALY":"302.1358","INCLINATION":"53.2173","COUNTRY_CODE":"US","DECAY_DATE":null,"FILE":"3397723","PERIAPSIS":"526.754","SEMIMAJOR_AXIS":"6906.051","REF_FRAME":"TEME","SITE":"AFETR","TLE_LINE1":"1 50803U 22001A   22101.91667824 -.00719644  00000-0 -43614-1 0  9992","GP_ID":"201018439","CENTER_NAME":"EARTH","RA_OF_ASC_NODE":"98.6615","TIME_SYSTEM":"UTC","ELEMENT_SET_NO":"999","NORAD_CAT_ID":"50803","MEAN_MOTION_DDOT":"0.0000000000000","EPHEMERIS_TYPE":"0","OBJECT_TYPE":"PAYLOAD","BSTAR":"-0.04361400000000"},{"EPOCH":"2022-04-11T22:00:00.999936","OBJECT_ID":"2022-001B","ARG_OF_PERICENTER":"43.7285","MEAN_ELEMENT_THEORY":"SGP4","PERIOD":"93.251","MEAN_MOTION":"15.44221538","APOAPSIS":"434.790","ECCENTRICITY":"0.00016470","TLE_LINE2":"2 50804  53.2174  91.6298 0001647  43.7285  98.2951 15.44221538  3667","LAUNCH_DATE":"2022-01-06","REV_AT_EPOCH":"366","OBJECT_NAME":"STARLINK-3323","RCS_SIZE":"LARGE","MEAN_MOTION_DOT":"-0.00721022","CLASSIFICATION_TYPE":"U","TLE_LINE1":"1 50804U 22001B   22101.91667824 -.00721022  00000-0 -16711-1 0  9994","SITE":"AFETR","REF_FRAME":"TEME","GP_ID":"201018689","CENTER_NAME":"EARTH","FILE":"3397723","DECAY_DATE":null,"COUNTRY_CODE":"US","MEAN_ANOMALY":"98.2951","INCLINATION":"53.2174","SEMIMAJOR_AXIS":"6811.803","PERIAPSIS":"432.546","NORAD_CAT_ID":"50804","MEAN_MOTION_DDOT":"0.0000000000000","ELEMENT_SET_NO":"999","TIME_SYSTEM":"UTC","BSTAR":"-0.01671100000000","OBJECT_TYPE":"PAYLOAD","EPHEMERIS_TYPE":"0","RA_OF_ASC_NODE":"91.6298"},{"PERIOD":"93.243","MEAN_ELEMENT_THEORY":"SGP4","OBJECT_ID":"2022-001C","ARG_OF_PERICENTER":"40.8536","MEAN_MOTION":"15.44349545","ECCENTRICITY":"0.00017080","APOAPSIS":"434.455","TLE_LINE2":"2 50805  53.2174  91.6296 0001708  40.8536 110.5084 15.44349545  3665","EPOCH":"2022-04-11T22:00:00.999936","CLASSIFICATION_TYPE":"U","MEAN_MOTION_DOT":"-0.00721351","LAUNCH_DATE":"2022-01-06","REV_AT_EPOCH":"366","RCS_SIZE":"LARGE","OBJECT_NAME":"STARLINK-3333","DECAY_DATE":null,"FILE":"3397723","MEAN_ANOMALY":"110.5084","INCLINATION":"53.2174","COUNTRY_CODE":"US","SEMIMAJOR_AXIS":"6811.427","PERIAPSIS":"432.129","TLE_LINE1":"1 50805U 22001C   22101.91667824 -.00721351  00000-0 -16646-1 0  9997","REF_FRAME":"TEME","SITE":"AFETR","CENTER_NAME":"EARTH","GP_ID":"201019441","RA_OF_ASC_NODE":"91.6296","TIME_SYSTEM":"UTC","ELEMENT_SET_NO":"999","NORAD_CAT_ID":"50805","MEAN_MOTION_DDOT":"0.0000000000000","BSTAR":"-0.01664600000000","EPHEMERIS_TYPE":"0","OBJECT_TYPE":"PAYLOAD"},{"RA_OF_ASC_NODE":"91.6293","MEAN_MOTION_DDOT":"0.0000000000000","NORAD_CAT_ID":"50806","TIME_SYSTEM":"UTC","ELEMENT_SET_NO":"999","OBJECT_TYPE":"PAYLOAD","EPHEMERIS_TYPE":"0","BSTAR":"-0.01657500000000","COUNTRY_CODE":"US","MEAN_ANOMALY":"123.3817","INCLINATION":"53.2174","FILE":"3397696","DECAY_DATE":null,"PERIAPSIS":"431.670","SEMIMAJOR_AXIS":"6811.051","SITE":"AFETR","REF_FRAME":"TEME","TLE_LINE1":"1 50806U 22001D   22101.91667824 -.00721436  00000-0 -16575-1 0  9993","CENTER_NAME":"EARTH","GP_ID":"200994860","MEAN_MOTION_DOT":"-0.00721436","CLASSIFICATION_TYPE":"U","LAUNCH_DATE":"2022-01-06","OBJECT_NAME":"STARLINK-3335","RCS_SIZE":"LARGE","REV_AT_EPOCH":"1622","MEAN_MOTION":"15.44477416","OBJECT_ID":"2022-001D","ARG_OF_PERICENTER":"37.2803","MEAN_ELEMENT_THEORY":"SGP4","PERIOD":"93.235","TLE_LINE2":"2 50806  53.2174  91.6293 0001829  37.2803 123.3817 15.44477416 16225","APOAPSIS":"434.162","ECCENTRICITY":"0.00018290","EPOCH":"2022-04-11T22:00:00.999936"},{"DECAY_DATE":null,"FILE":"3397723","MEAN_ANOMALY":"155.9511","INCLINATION":"53.2174","COUNTRY_CODE":"US","SEMIMAJOR_AXIS":"6809.549","PERIAPSIS":"430.216","TLE_LINE1":"1 50807U 22001E   22101.91667824 -.00721300  00000-0 -16284-1 0  9991","REF_FRAME":"TEME","SITE":"AFETR","CENTER_NAME":"EARTH","GP_ID":"201017940","RA_OF_ASC_NODE":"91.6273","TIME_SYSTEM":"UTC","ELEMENT_SET_NO":"999","MEAN_MOTION_DDOT":"0.0000000000000","NORAD_CAT_ID":"50807","BSTAR":"-0.01628400000000","EPHEMERIS_TYPE":"0","OBJECT_TYPE":"PAYLOAD","MEAN_ELEMENT_THEORY":"SGP4","PERIOD":"93.205","OBJECT_ID":"2022-001E","ARG_OF_PERICENTER":"41.5271","MEAN_MOTION":"15.44988621","ECCENTRICITY":"0.00017580","APOAPSIS":"432.611","TLE_LINE2":"2 50807  53.2174  91.6273 0001758  41.5271 155.9511 15.44988621  3674","EPOCH":"2022-04-11T22:00:00.999936","CLASSIFICATION_TYPE":"U","MEAN_MOTION_DOT":"-0.00721300","LAUNCH_DATE":"2022-01-06","REV_AT_EPOCH":"367","RCS_SIZE":"LARGE","OBJECT_NAME":"STARLINK-3353"},{"GP_ID":"201018190","CENTER_NAME":"EARTH","SITE":"AFETR","REF_FRAME":"TEME","TLE_LINE1":"1 50808U 22001F   22101.91667824 -.00721581  00000-0 -16434-1 0  9990","PERIAPSIS":"430.914","SEMIMAJOR_AXIS":"6810.299","COUNTRY_CODE":"US","INCLINATION":"53.2174","MEAN_ANOMALY":"141.4454","FILE":"3397723","DECAY_DATE":null,"OBJECT_TYPE":"PAYLOAD","EPHEMERIS_TYPE":"0","BSTAR":"-0.01643400000000","MEAN_MOTION_DDOT":"0.0000000000000","NORAD_CAT_ID":"50808","TIME_SYSTEM":"UTC","ELEMENT_SET_NO":"999","RA_OF_ASC_NODE":"91.6284","EPOCH":"2022-04-11T22:00:00.999936","TLE_LINE2":"2 50808  53.2174  91.6284 0001836  37.7015 141.4454 15.44733122  3677","APOAPSIS":"433.415","ECCENTRICITY":"0.00018360","MEAN_MOTION":"15.44733122","OBJECT_ID":"2022-001F","ARG_OF_PERICENTER":"37.7015","MEAN_ELEMENT_THEORY":"SGP4","PERIOD":"93.220","OBJECT_NAME":"STARLINK-3355","RCS_SIZE":"LARGE","REV_AT_EPOCH":"367","LAUNCH_DATE":"2022-01-06","MEAN_MOTION_DOT":"-0.00721581","CLASSIFICATION_TYPE":"U"},{"MEAN_MOTION":"15.44605290","OBJECT_ID":"2022-001G","ARG_OF_PERICENTER":"38.8539","PERIOD":"93.228","MEAN_ELEMENT_THEORY":"SGP4","TLE_LINE2":"2 50809  53.2174  91.6289 0001792  38.8539 131.0697 15.44605290  3664","APOAPSIS":"433.761","ECCENTRICITY":"0.00017920","EPOCH":"2022-04-11T22:00:00.999936","MEAN_MOTION_DOT":"-0.00721568","CLASSIFICATION_TYPE":"U","LAUNCH_DATE":"2022-01-06","OBJECT_NAME":"STARLINK-3232","RCS_SIZE":"LARGE","REV_AT_EPOCH":"366","COUNTRY_CODE":"US","MEAN_ANOMALY":"131.0697","INCLINATION":"53.2174","FILE":"3397723","DECAY_DATE":null,"SEMIMAJOR_AXIS":"6810.675","PERIAPSIS":"431.320","SITE":"AFETR","REF_FRAME":"TEME","TLE_LINE1":"1 50809U 22001G   22101.91667824 -.00721568  00000-0 -16506-1 0  9996","GP_ID":"201018942","CENTER_NAME":"EARTH","RA_OF_ASC_NODE":"91.6289","NORAD_CAT_ID":"50809","MEAN_MOTION_DDOT":"0.0000000000000","TIME_SYSTEM":"UTC","ELEMENT_SET_NO":"999","OBJECT_TYPE":"PAYLOAD","EPHEMERIS_TYPE":"0","BSTAR":"-0.01650600000000"},{"RA_OF_ASC_NODE":"91.6278","ELEMENT_SET_NO":"999","TIME_SYSTEM":"UTC","MEAN_MOTION_DDOT":"0.0000000000000","NORAD_CAT_ID":"50810","BSTAR":"-0.01636200000000","EPHEMERIS_TYPE":"0","OBJECT_TYPE":"PAYLOAD","DECAY_DATE":null,"FILE":"3397723","MEAN_ANOMALY":"148.3094","INCLINATION":"53.2174","COUNTRY_CODE":"US","PERIAPSIS":"430.581","SEMIMAJOR_AXIS":"6809.924","TLE_LINE1":"1 50810U 22001H   22101.91667824 -.00721566  00000-0 -16362-1 0  9996","REF_FRAME":"TEME","SITE":"AFETR","CENTER_NAME":"EARTH","GP_ID":"201019692","CLASSIFICATION_TYPE":"U","MEAN_MOTION_DOT":"-0.00721566","LAUNCH_DATE":"2022-01-06","REV_AT_EPOCH":"369","RCS_SIZE":"LARGE","OBJECT_NAME":"STARLINK-3348","MEAN_ELEMENT_THEORY":"SGP4","PERIOD":"93.212","ARG_OF_PERICENTER":"40.0223","OBJECT_ID":"2022-001H","MEAN_MOTION":"15.44860928","ECCENTRICITY":"0.00017730","APOAPSIS":"432.996","TLE_LINE2":"2 50810  53.2174  91.6278 0001773  40.0223 148.3094 15.44860928  3694","EPOCH":"2022-04-11T22:00:00.999936"},{"OBJECT_ID":"2022-001J","ARG_OF_PERICENTER":"41.4595","PERIOD":"93.197","MEAN_ELEMENT_THEORY":"SGP4","MEAN_MOTION":"15.45116430","APOAPSIS":"432.228","ECCENTRICITY":"0.00017470","TLE_LINE2":"2 50811  53.2174  91.6265 0001747  41.4595 165.1267 15.45116430  3691","EPOCH":"2022-04-11T22:00:00.999936","MEAN_MOTION_DOT":"-0.00721354","CLASSIFICATION_TYPE":"U","LAUNCH_DATE":"2022-01-06","REV_AT_EPOCH":"369","OBJECT_NAME":"STARLINK-3347","RCS_SIZE":"LARGE","FILE":"3397723","DECAY_DATE":null,"COUNTRY_CODE":"US","MEAN_ANOMALY":"165.1267","INCLINATION":"53.2174","PERIAPSIS":"429.848","SEMIMAJOR_AXIS":"6809.173","TLE_LINE1":"1 50811U 22001J   22101.91667824 -.00721354  00000-0 -16214-1 0  9998","SITE":"AFETR","REF_FRAME":"TEME","GP_ID":"201018440","CENTER_NAME":"EARTH","RA_OF_ASC_NODE":"91.6265","NORAD_CAT_ID":"50811","MEAN_MOTION_DDOT":"0.0000000000000","TIME_SYSTEM":"UTC","ELEMENT_SET_NO":"999","BSTAR":"-0.01621400000000","OBJECT_TYPE":"PAYLOAD","EPHEMERIS_TYPE":"0"}];
